---
chunk_id: "satellite-communications-3rd-editon-ebook-tlfebook-247660b06a-chunk-0076"
source_id: "satellite-communications-3rd-editon-ebook-tlfebook-247660b06a"
source_file: "New folder (3)/Satellite.Communications.3rd.Editon.eBook-TLFeBOOK.pdf"
source_type: "pdf"
topics:
  - "Satellite Communications"
  - "References and Textbooks"
chunk_index: 76
confidence: "first-pass"
extraction_method: "structured-local"
---

noted, however, that in general a geosynchronous satellite does not
have to be near-geostationary, and there are a number of geosynchro-
nous satellites that are in highly elliptical orbits with comparatively
large inclinations (e.g., the Tundra satellites).
Although in principle the two-line elements could be used as
described in Chap. 2 to determine orbital motion, the small inclination
makes it difficult to locate the position of the ascending node, and the
small eccentricity makes it difficult to locate the position of the
perigee. However, because of the small inclination, the angles 
 and 
are almost in the same plane, and this approximation is used. Thus
the mean longitude of the satellite is given by
SSmean  
    M  GST
(3.20)
SS  
    v  GST
(3.21)
Equation (2.31) can be used to calculate the true anomaly, and because
of the small eccentricity, this can be approximated as
v  M  2e sin (M)
(3.22)
80
Chapter Three
COMSTAR 2
1 09047U 76073A 00223.54804866 .00000046 00000-0 10000-3 0 6105
2 09047 12.0422 29.2398 0003118 249.8535 110.1810 0.99970650
89122
MORELOS B
1 16274U 85109B 00223.33258916 -.00000005 00000-0 00000+0 0 9543
2 16274 1.5560 89.5711 0001273 11.0167 218.0190 1.00272326 43202
EUTELSAT II F1
1 20777U 90079B 00224.09931713 .00000112 00000-0 00000+0 6898
2 20777 1.3398 93.0453 0004190 46.4886 264.0253 1.00275097 16856
AS1ASAT 3
1 25126U 97086A 00221.37048611 -.00000288 00000-0 10000-4 0 3326
2 25126 7.1218 291.3069 0048368 338.8396 120.3853 1.00273882 10448
INTELSAT 805
1 25371U 98037A 00223.15300705 -.00000297 00000-0 00000+0 0 2387
2 25371 0.0309 272.5299 0003525 247.9161 158.0516 1.00271603 7893
INTELSAT 806
1 25239U 98014A 00221.20890226 -.00000275 00000-0 00000-0 0 3053
2 25239 0.0360 287.7943 0003595 234.8733 189.0306 1.00270223 9029
Figure 3.7
Two-line elements for some geostationary satellites.
Example 3.5
Using the data given in Fig. 3.7, calculate the longitude for
INTELSAT 805.
solution
Data from Fig. 3.7:
y :  2000
d :  223.15300705  day
n :  1.0027160  day1
 :  272.5299  deg
e :  .000352

:  247.9161  deg
TLFeBOOK

## Page 96
